1 48435U 21040H   23089.88317939  .00036257  00000-0  24351-2 0  9991
2 48435  53.0523 311.6176 0001118  59.9906 300.1194 15.06481740104838
1 48435U 21040H   23090.61299717 -.00003152  00000-0 -19288-3 0  9991
2 48435  53.0530 308.3430 0000619  73.4678 286.6379 15.06388105106223
1 48435U 21040H   23090.87839885  .00012204  00000-0  83802-3 0  9994
2 48435  53.0527 307.1505 0001058  98.5633 261.5475 15.06345026104981
1 48435U 21040H   23090.87839885  .00012204  00000-0  83802-3 0  9994
2 48435  53.0527 307.1505 0001058  98.5633 261.5475 15.06345026106264
1 48435U 21040H   23091.87362917  .00027434  00000-0  18544-2 0  9993
2 48435  53.0534 302.6821 0000996 104.6175 255.4925 15.06382098105130
1 48435U 21040H   23091.87362917  .00027434  00000-0  18544-2 0  9993
2 48435  53.0534 302.6821 0000996 104.6175 255.4925 15.06382098106412
1 48435U 21040H   23092.53710613  .00015392  00000-0  10503-2 0  9994
2 48435  53.0533 299.7042 0000944 104.2316 255.8778 15.06388523105236
1 48435U 21040H   23092.53710613  .00015392  00000-0  10503-2 0  9994
2 48435  53.0533 299.7042 0000944 104.2316 255.8778 15.06388523106518
1 48435U 21040H   23092.86884182  .00011758  00000-0  80709-3 0  9991
2 48435  53.0531 298.2148 0000923 102.9992 257.1100 15.06393641105283
1 48435U 21040H   23093.00153542  .00012534  00000-0  85886-3 0  9991
2 48435  53.0527 297.6188 0000898 102.5659 257.5430 15.06397835105304
1 48435U 21040H   23093.00153542  .00012534  00000-0  85886-3 0  9991
2 48435  53.0527 297.6188 0000898 102.5659 257.5430 15.06397835106585
1 48435U 21040H   23093.99671905  .00017403  00000-0  11830-2 0  9994
2 48435  53.0521 293.1506 0000850  99.9739 260.1346 15.06441415106737
1 48435U 21040H   23094.52750095  .00009955  00000-0  68644-3 0  9991
2 48435  53.0513 290.7675 0001853  98.5154 261.6045 15.06388972105535
1 48435U 21040H   23094.52750095  .00009955  00000-0  68644-3 0  9991
2 48435  53.0513 290.7675 0001853  98.5154 261.6045 15.06388972106817
1 48435U 21040H   23094.85923914  .00010484  00000-0  72200-3 0  9991
2 48435  53.0517 289.2783 0000904 102.6312 257.4778 15.06383954105587
1 48435U 21040H   23094.85923914  .00010484  00000-0  72200-3 0  9991
2 48435  53.0517 289.2783 0000904 102.6312 257.4778 15.06383954106869
1 48435U 21040H   23095.52270411  .00014740  00000-0  10061-2 0  9998
2 48435  53.0521 286.2979 0000900 134.3310 225.7753 15.06409092105686
1 48435U 21040H   23095.52270411  .00014740  00000-0  10061-2 0  9998
2 48435  53.0521 286.2979 0000900 134.3310 225.7753 15.06409092106968
1 48435U 21040H   23095.78808668  .00020090  00000-0  13628-2 0  9994
2 48435  53.0529 285.1087 0000703 115.2816 244.8246 15.06426776105724
1 48435U 21040H   23096.25251423  .00008068  00000-0  55967-3 0  9992
2 48435  53.0522 283.0220 0000547 104.4728 255.6321 15.06413646107077
1 48435U 21040H   23096.51790738 -.00004787  00000-0 -30282-3 0  9997
2 48435  53.0530 281.8323 0000931  83.8513 276.2582 15.06388889105835
1 48435U 21040H   23096.51790738 -.00004787  00000-0 -30282-3 0  9997
2 48435  53.0530 281.8323 0000931  83.8513 276.2582 15.06388889107118
1 48435U 21040H   23096.78329794  .00001704  00000-0  13328-3 0  9992
2 48435  53.0532 280.6410 0000780  76.2077 283.8998 15.06387789105871
1 48435U 21040H   23097.51311797  .00023406  00000-0  15846-2 0  9997
2 48435  53.0527 277.3641 0000797  64.4099 295.6972 15.06410235105983
1 48435U 21040H   23097.51311797  .00023406  00000-0  15846-2 0  9997
2 48435  53.0527 277.3641 0000797  64.4099 295.6972 15.06410235107266
1 48435U 21040H   23098.44197239  .00006800  00000-0  47486-3 0  9998
2 48435  53.0540 273.1951 0002012  83.8783 276.2435 15.06408136106126
1 48435U 21040H   23098.44197239  .00006800  00000-0  47486-3 0  9998
2 48435  53.0540 273.1951 0002012  83.8783 276.2435 15.06408136107408
1 48435U 21040H   23098.77371427  .00019559  00000-0  13291-2 0  9998
2 48435  53.0537 271.7049 0000930  75.1344 284.9748 15.06378675107452
1 48435U 21040H   23099.50353013  .00019164  00000-0  13016-2 0  9998
2 48435  53.0540 268.4284 0000940  74.7062 285.4031 15.06409650106282
1 48435U 21040H   23099.83525878  .00023143  00000-0  15663-2 0  9996
2 48435  53.0535 266.9395 0000947  70.6497 289.4594 15.06427825106334
1 48435U 21040H   23099.83525878  .00023143  00000-0  15663-2 0  9996
2 48435  53.0535 266.9395 0000947  70.6497 289.4594 15.06427825107616
1 48435U 21040H   23100.16699216  .00011110  00000-0  76330-3 0  9993
2 48435  53.0539 265.4514 0000613 103.3482 256.7575 15.06414083107668
1 48435U 21040H   23100.43238372  .00006625  00000-0  46323-3 0  9999
2 48435  53.0527 264.2592 0001495  77.9874 282.1283 15.06402134106424
1 48435U 21040H   23100.43238372  .00006625  00000-0  46323-3 0  9999
2 48435  53.0527 264.2592 0001495  77.9874 282.1283 15.06402134107706
1 48435U 21040H   23101.49391793  .00025565  00000-0  17269-2 0  9993
2 48435  53.0534 259.4937 0000874  81.3359 278.7729 15.06443780106583
1 48435U 21040H   23101.49391793  .00025565  00000-0  17269-2 0  9993
2 48435  53.0534 259.4937 0000874  81.3359 278.7729 15.06443780107865
1 48435U 21040H   23102.42276571 -.00016000  00000-0 -10579-2 0  9996
2 48435  53.0524 255.3243 0001669  92.2749 267.8431 15.06390365106729
1 48435U 21040H   23102.42276571 -.00016000  00000-0 -10579-2 0  9996
2 48435  53.0524 255.3243 0001669  92.2749 267.8431 15.06390365108002
1 48435U 21040H   23103.41797798  .00015707  00000-0  10710-2 0  9993
2 48435  53.0554 250.8571 0000373  77.4027 282.7003 15.06400259106872
1 48435U 21040H   23104.41318081  .00009531  00000-0  65800-3 0  9997
2 48435  53.0529 246.3863 0001049  98.4134 261.6974 15.06393162107026
1 48435U 21040H   23104.67857497  .00025706  00000-0  17391-2 0  9997
2 48435  53.0530 245.1971 0001088  79.1500 280.9611 15.06383455108343
1 48435U 21040H   23105.54107256  .00041141  00000-0  27609-2 0  9999
2 48435  53.0533 241.3246 0001152  76.4704 283.6413 15.06452281107193
1 48435U 21040H   23105.54107256  .00041141  00000-0  27609-2 0  9999
2 48435  53.0533 241.3246 0001152  76.4704 283.6413 15.06452281108475
1 48435U 21040H   23105.80644739  .00044576  00000-0  29863-2 0  9999
2 48435  53.0532 240.1332 0001185  75.2555 284.8565 15.06478350107233
1 48435U 21040H   23106.53628401  .00009929  00000-0  68514-3 0  9998
2 48435  53.0529 236.8567 0000630  39.0621 321.0413 15.06364305107349
1 48435U 21040H   23106.53628401  .00009929  00000-0  68514-3 0  9998
2 48435  53.0529 236.8567 0000630  39.0621 321.0413 15.06364305108621
1 48435U 21040H   23106.73533102  .00033050  00000-0  22293-2 0  9998
2 48435  53.0531 235.9634 0001162  98.3762 261.7358 15.06366383107371
1 48435U 21040H   23106.73533102  .00033050  00000-0  22293-2 0  9998
2 48435  53.0531 235.9634 0001162  98.3762 261.7358 15.06366383108653
1 48435U 21040H   23107.53149256  .00043136  00000-0  28946-2 0  9997
2 48435  53.0526 232.3886 0001125  96.4758 263.6359 15.06432546107498
1 48435U 21040H   23107.66418268  .00044836  00000-0  30062-2 0  9993
2 48435  53.0531 231.7934 0001137  93.2913 266.8206 15.06445158107514
1 48435U 21040H   23107.66418268  .00044836  00000-0  30062-2 0  9993
2 48435  53.0531 231.7934 0001137  93.2913 266.8206 15.06445158108795
1 48435U 21040H   23108.06227191  .00007263  00000-0  50594-3 0  9997
2 48435  53.0539 230.0061 0002302  72.1179 288.0061 15.06401309107571
1 48435U 21040H   23108.06227191  .00007263  00000-0  50594-3 0  9997
2 48435  53.0539 230.0061 0002302  72.1179 288.0061 15.06401309108853
1 48435U 21040H   23108.52671164  .00016195  00000-0  11047-2 0  9994
2 48435  53.0535 227.9216 0001399  68.9572 291.1566 15.06363513108928
1 48435U 21040H   23108.79210698  .00049159  00000-0  32982-2 0  9991
2 48435  53.0533 226.7300 0001274  60.9468 299.1649 15.06378000107684
1 48435U 21040H   23109.05749583  .00049399  00000-0  33119-2 0  9990
2 48435  53.0536 225.5390 0001342  58.4091 301.7029 15.06402487107727
1 48435U 21040H   23109.78729354  .00050532  00000-0  33807-2 0  9999
2 48435  53.0539 222.2625 0001425  55.4446 304.6677 15.06470270107836
1 48435U 21040H   23110.31807757  .00004132  00000-0  29614-3 0  9991
2 48435  53.0540 219.8809 0001740  59.5195 300.5966 15.06396434107914
1 48435U 21040H   23110.78251438  .00029923  00000-0  20200-2 0  9997
2 48435  53.0542 217.7929 0001372  88.3773 271.7373 15.06385960107989
1 48435U 21040H   23110.98155577  .00027959  00000-0  18885-2 0  9999
2 48435  53.0537 216.9027 0001169  82.3197 277.7924 15.06399030108017
1 48435U 21040H   23110.98155577  .00027959  00000-0  18885-2 0  9999
2 48435  53.0537 216.9027 0001169  82.3197 277.7924 15.06399030109298
1 48435U 21040H   23111.77770289  .00026436  00000-0  17848-2 0  9997
2 48435  53.0544 213.3251 0001316  87.6958 272.4181 15.06445835108137
1 48435U 21040H   23112.24214110 -.00001569  00000-0 -86485-4 0  9993
2 48435  53.0532 211.2433 0001264  96.5373 263.5760 15.06383395109480
1 48435U 21040H   23112.30848726 -.00005055  00000-0 -32077-3 0  9997
2 48435  53.0533 210.9454 0001218  93.8867 266.2261 15.06391810108214
1 48435U 21040H   23112.70657475  .00025412  00000-0  17192-2 0  9997
2 48435  53.0529 209.1593 0001267  92.7081 267.4053 15.06389836108276
1 48435U 21040H   23112.70657475  .00025412  00000-0  17192-2 0  9997
2 48435  53.0529 209.1593 0001267  92.7081 267.4053 15.06389836109558
1 48435U 21040H   23113.63541535  .00028800  00000-0  19420-2 0  9999
2 48435  53.0525 204.9899 0001269  88.1842 271.9292 15.06447199109699
1 48435U 21040H   23113.76810384  .00033188  00000-0  22329-2 0  9991
2 48435  53.0519 204.3934 0001260  88.5483 271.5650 15.06458845108437
1 48435U 21040H   23113.96714994 -.00002652  00000-0 -15918-3 0  9994
2 48435  53.0524 203.5002 0000910  75.6479 284.4611 15.06410599108460
1 48435U 21040H   23115.16137126  .00024569  00000-0  16599-2 0  9998
2 48435  53.0528 198.1375 0001396  67.4985 292.6151 15.06459068109922
1 48435U 21040H   23115.55946951 -.00032011  00000-0 -21417-2 0  9993
2 48435  53.0524 196.3508 0001438  91.2400 268.8753 15.06366912108703
